{"fetched_at":"2026-04-08T17:04:03Z","count":12288,"tles":[{"name":"STARLINK-36322","line1":"1 68522U 26068Q   26097.11815684 -.00558843  10980-3 -15413-2 0  9995","line2":"2 68522  53.1611   6.8787 0000504 281.5636  78.5335 15.93125845  1160","category":"Starlink"}]}