{
  "norad_id": 68522,
  "name": "STARLINK-36322",
  "history": [
    {
      "epoch": "2026-04-07T02:50:08.750976Z",
      "apogee_km": 293.8778938929354,
      "perigee_km": 293.2053886858939,
      "latitude_deg": -3.0962720375847495e-05,
      "longitude_deg": 128.9425674626684,
      "height_km": 294.3990327652443,
      "semi_major_axis_km": 6671.678641289414,
      "eccentricity": 5.04e-05,
      "inclination_deg": 53.1611,
      "raan_deg": 6.8787,
      "arg_perigee_deg": 281.5636,
      "mean_anomaly_deg": 78.5335,
      "mean_motion_rev_day": 15.93125845
    }
  ]
}